FENGYUN 1C DEB          
1 31086U 99025BGG 17345.48652812  .00001423  00000-0  18710-3 0  9999
2 31086  98.9868 352.6745 0125210  46.8983 107.5269 14.76832940572636
